{
  "norad_id": 57477,
  "name": "STARLINK-30176",
  "history": [
    {
      "epoch": "2026-03-28T17:47:23.434944",
      "apogee_km": 484.14958754558575,
      "perigee_km": 481.9892680897228,
      "latitude_deg": -25.138132951420054,
      "longitude_deg": -1.1406278400681913,
      "semi_major_axis_km": 6861.206427817654,
      "eccentricity": 0.00015743,
      "inclination_deg": 42.9974,
      "raan_deg": 228.2523,
      "arg_perigee_deg": 273.0285,
      "mean_anomaly_deg": 87.0386,
      "mean_motion_rev_day": 15.2757321
    },
    {
      "epoch": "2026-03-29T01:38:10.270752",
      "apogee_km": 484.1493824043155,
      "perigee_km": 481.876969466045,
      "latitude_deg": 17.842686164617067,
      "longitude_deg": 30.24474527989514,
      "semi_major_axis_km": 6861.1501759351795,
      "eccentricity": 0.0001656,
      "inclination_deg": 43.0032,
      "raan_deg": 226.4102,
      "arg_perigee_deg": 276.0586,
      "mean_anomaly_deg": 84.0077,
      "mean_motion_rev_day": 15.27591996
    }
  ]
}